{"type": "FeatureCollection", "features": [{"type": "Feature", "properties": {"kind": "coastline_smoothed"}, "geometry": {"type": "LineString", "coordinates": [[-75.76534131420382, 36.21710702864945], [-75.76529665937605, 36.21700703544302], [-75.76525022258761, 36.21690314862963], [-75.76520200837138, 36.21679538351885], [-75.76515202491377, 36.21668376526803], [-75.76510028552451, 36.216568328169785], [-75.7650468082176, 36.216449115507494], [-75.76499161540306, 36.21632617929691], [-75.76493473273983, 36.21619958024375], [-75.76487618957186, 36.21606938709176], [-75.76481601817034, 36.21593567631998], [-75.76475425363495, 36.21579853156024], [-75.76469093458337, 36.2156580426978], [-75.76462610296478, 36.21551430523354], [-75.76455980296909, 36.215367419925826], [-75.7644920803311, 36.215217492273794], [-75.76442298247126, 36.21506463169906], [-75.76435255742562, 36.21490895113606], [-75.76428085431112, 36.21475056609691], [-75.76420792339253, 36.21458959388159], [-75.76413381629406, 36.21442615275438], [-75.76405858429692, 36.21426036179982], [-75.76398227826773, 36.21409234024735], [-75.76390494867658, 36.21392220679959], [-75.76382664438445, 36.21375007942165], [-75.76374741383634, 36.21357607434773], [-75.76366730466128, 36.21340030568085], [-75.76358636442723, 36.21322288464492], [-75.76350463845952, 36.21304391989521], [-75.76342216930945, 36.21286351731435], [-75.76333899878325, 36.212681778981796], [-75.76325516719356, 36.21249880314847], [-75.76317071420638, 36.212314683714865], [-75.76308567677535, 36.212129510758494], [-75.76300009011644, 36.2119433700656], [-75.76291398772395, 36.211756343037514], [-75.76282740140415, 36.21156850663349], [-75.76274036120857, 36.211379933387896], [-75.76265289450727, 36.21119069175909], [-75.76256502809618, 36.211000845470004], [-75.76247678729364, 36.21081045391183], [-75.76238819602051, 36.21061957223623], [-75.76229927688397, 36.21042825146867], [-75.76221005182886, 36.21023653844633], [-75.76212054196102, 36.21004447605572], [-75.76203076676939, 36.20985210368911], [-75.76194074482481, 36.20965945720384], [-75.76185049386534, 36.20946656909845], [-75.76176003087696, 36.20927346869466], [-75.76166937160276, 36.20908018251676], [-75.7615785308738, 36.20888673438861], [-75.76148752353231, 36.20869314532482], [-75.76139636465888, 36.208499433656414], [-75.7613050687229, 36.20830561552068], [-75.76121364854647, 36.208111705407994], [-75.76112211664868, 36.207917715884065], [-75.76103048554535, 36.207723657662136], [-75.76093876834815, 36.20752953956334], [-75.76084697725406, 36.20733536919145], [-75.76075512385303, 36.20714115297405], [-75.76066321937044, 36.20694689621619], [-75.76057127364844, 36.206752603577144], [-75.7604792966534, 36.206558278670535], [-75.76038729815701, 36.20636392428202], [-75.76029528871666, 36.206169542131754], [-75.76020327751613, 36.205975133705934], [-75.76011127324098, 36.20578070003826], [-75.76001928412362, 36.20558624176899], [-75.75992731669055, 36.20539175964161], [-75.75983537789087, 36.20519725383256], [-75.75974347434472, 36.20500272426287], [-75.7596516131517, 36.20480817036858], [-75.75955979994346, 36.20461359181158], [-75.75946803982568, 36.204418988193964], [-75.7593763373769, 36.204224359091434], [-75.7592846966506, 36.20402970408186], [-75.7591931210262, 36.20383502282169], [-75.75910161233587, 36.20364031536797], [-75.75901017280992, 36.203445581529955], [-75.75891880451711, 36.203250821077965], [-75.7588275096312, 36.20305603366629], [-75.7587362890966, 36.20286121930358], [-75.75864514342639, 36.20266637932693], [-75.75855407232449, 36.202471513837985], [-75.75846307554718, 36.202276622920344], [-75.7583721519416, 36.20208170696969], [-75.75828130043756, 36.20188676635326], [-75.75819051921715, 36.20169180169489], [-75.7580998066992, 36.2014968135372], [-75.75800916107741, 36.20130180250008], [-75.75791857994874, 36.2011067694081], [-75.75782806122028, 36.20091171497951], [-75.75773760220596, 36.2007166401361], [-75.75764720063533, 36.20052154565696], [-75.75755685379855, 36.200326432472025], [-75.75746655867465, 36.20013130161798], [-75.75737631251614, 36.19993615403765], [-75.75728611344836, 36.19974099037436], [-75.75719596002273, 36.19954581112521], [-75.75710585017046, 36.199350617000114], [-75.75701578154737, 36.19915540880352], [-75.75692575225214, 36.19896018718789], [-75.75683576187309, 36.19876495229449], [-75.75674581019818, 36.198569704196096], [-75.75665589677585, 36.19837444304768], [-75.75656602084379, 36.19817917067932], [-75.75647618258617, 36.19798388794411], [-75.75638638297595, 36.19778859504868], [-75.75629662336688, 36.19759329217742], [-75.75620690621903, 36.197397979263066], [-75.7561172338075, 36.197202656452696], [-75.75602760835261, 36.19700732408932], [-75.75593803146421, 36.196811982932964], [-75.75584850594171, 36.19661663357767], [-75.75575903491989, 36.196421276784406], [-75.75566962160983, 36.196225913615365], [-75.75558026990143, 36.19603054475303], [-75.75549098250178, 36.19583517140488], [-75.75540176218783, 36.19563979543006], [-75.75531261053882, 36.195444419390135], [-75.75522352966293, 36.195249046637976], [-75.7551345210378, 36.19505368136743], [-75.75504558535982, 36.19485832874472], [-75.75495672238364, 36.19466299505069], [-75.75486793078487, 36.19446768782253], [-75.75477920895574, 36.194272415683244], [-75.75469055258772, 36.19407718928137], [-75.75460195575089, 36.193882021038355], [-75.7545134120662, 36.19368692533225], [-75.75442491333878, 36.19349191870468], [-75.75433644784273, 36.19329702021036], [-75.75424800138389, 36.193102251552], [-75.75415955812154, 36.192907636955525], [-75.75407109960175, 36.19271320366411], [-75.75398260502597, 36.19251898201173], [-75.75389405118588, 36.19232500617596], [-75.75380541124711, 36.19213131445354], [-75.75371665432067, 36.19193794824541], [-75.75362774658791, 36.19174495271826], [-75.75353865197903, 36.19155237750558], [-75.75344933135423, 36.19136027790159], [-75.75335974312337, 36.191168713237595], [-75.75326984254485, 36.19097774689523], [-75.75317958150251, 36.19078744717077], [-75.75308890850027, 36.190597887381514], [-75.75299777024372, 36.190409145406136], [-75.7529061123771, 36.1902213014284], [-75.75281387808502, 36.19003444203927], [-75.75272100870569, 36.18984865846564], [-75.75262744355541, 36.18966404651603], [-75.75253312233995, 36.18948070566426], [-75.7524379847649, 36.189298739053825], [-75.75234197094645, 36.18911825318468], [-75.75224502179033, 36.188939356776245], [-75.75214707963809, 36.188762161597076], [-75.7520480879, 36.18858678180173], [-75.75194799286972, 36.188413332871455], [-75.75184674596791, 36.18824193044074], [-75.7517443042409, 36.18807268967888], [-75.75164062909757, 36.1879057252356], [-75.75153568899661, 36.18774114979302], [-75.75142945813889, 36.1875790739549], [-75.7513219182676, 36.187419605040354], [-75.75121305910505, 36.18726284632165], [-75.75110287981337, 36.187108895893374], [-75.75099139115832, 36.186957845289], [-75.75087861403904, 36.18680977934086], [-75.75076458119194, 36.18666477495432], [-75.75064933657853, 36.18652290068779], [-75.75053293764174, 36.18638421536733], [-75.75041545470484, 36.186248767708186], [-75.75029697135592, 36.1861165956319], [-75.75017758598817, 36.185987725227875], [-75.75005741083471, 36.18586217062163], [-75.74993657204148, 36.18573993354018], [-75.74981520903077, 36.18562100317863], [-75.74969347539678, 36.18550535560321], [-75.74957153899955, 36.18539295349369], [-75.74944958226376, 36.18528374588273], [-75.74932779991114, 36.18517766884244], [-75.74920639762257, 36.18507464591835], [-75.74908559137792, 36.18497458839551], [-75.74896560715324, 36.184877395502745], [-75.74884668018738, 36.184782954821976], [-75.74872905371856, 36.18469114293072], [-75.74861297888768, 36.18460182568957], [-75.74849871029066, 36.184514860060844], [-75.74838650393224, 36.18443009513377], [-75.74827661650463, 36.18434737271738], [-75.74816930536696, 36.18426652770724], [-75.74806482753662, 36.184187388797326], [-75.74796343349149, 36.18410978097015], [-75.74786536687016, 36.184033525953915], [-75.74777086185952, 36.18395844345665], [-75.74768014318381, 36.183884351485624], [-75.74759342290933, 36.183811067732236], [-75.74751089849043, 36.18373841050016], [-75.74743275088312, 36.18366619957731], [-75.74735914163429, 36.1835942574249], [-75.74729021401662, 36.18352240894504], [-75.74722608876381, 36.18345048306922], [-75.74716686473602, 36.18337831262675], [-75.74711261565777, 36.18330573553703], [-75.74706339004061, 36.18323259489117], [-75.74701920975221, 36.183158739486665], [-75.74698006881796, 36.183084024279054], [-75.74694593580413, 36.18300830960911], [-75.74691675227969, 36.18293146178906], [-75.74689243323259, 36.18285335304028], [-75.74687286595254, 36.1827738619877], [-75.74685791184454, 36.18269287318749], [-75.74684740682943, 36.18261027718615], [-75.74684116160927, 36.1825259706783], [-75.74683896301765, 36.18243985635106], [-75.74684057647019, 36.18235184241327], [-75.74684574806798, 36.182261842308584], [-75.7468542045927, 36.18216977521848], [-75.7468656568004, 36.18207556549853], [-75.7468798004539, 36.18197914295384], [-75.74689632014065, 36.18188044221777], [-75.74691489112605, 36.18177940285777], [-75.7469351822616, 36.181675969165525], [-75.74695685835398, 36.18157009016924], [-75.74697958079051, 36.181461720271656], [-75.74700301089207, 36.18135081896867], [-75.74702681080188, 36.181237351418126], [-75.74705064889113, 36.18112128745141], [-75.74707420116297, 36.181002601937706], [-75.74709715392582, 36.18088127468058], [-75.74711920528658, 36.180757290674194], [-75.74714006518062, 36.180630640805326], [-75.74715945829324, 36.180501321495534], [-75.7471771239566, 36.18036933530382], [-75.74719282092298, 36.18023468976975], [-75.74720632701816, 36.180097397919866], [-75.74721744107642, 36.17995747789202], [-75.74722598149917, 36.1798149536145], [-75.74723178780103, 36.179669854354174], [-75.74723472164011, 36.17952221433453], [-75.74723466501109, 36.17937207322164], [-75.74723152099574, 36.17921947562855], [-75.7472252121496, 36.1790644713318], [-75.74721568348922, 36.17890711381531], [-75.74720290019381, 36.17874746054066], [-75.7471868479541, 36.17858557223015], [-75.74716753023267, 36.17842151313925], [-75.74714496689725, 36.17825535079764], [-75.74711919336792, 36.178087155523365], [-75.74709025904117, 36.17791700014559], [-75.74705822858458, 36.177744958713454], [-75.74702317934049, 36.17757110652184], [-75.74698520068755, 36.177395519457825], [-75.74694439043382, 36.17721827436797], [-75.74690085328876, 36.177039448724706], [-75.74685470084125, 36.17685911979669], [-75.74680605113909, 36.17667736398495], [-75.74675502769162, 36.17649425639382], [-75.74670175588969, 36.176309871330346], [-75.74664636234279, 36.17612428185113], [-75.74658897422428, 36.17593755935846], [-75.74652971821244, 36.175749773391146], [-75.74646871890472, 36.17556099165388], [-75.74640609831906, 36.175371279733156], [-75.74634197584318, 36.175180700719245], [-75.74627646695343, 36.174989315309816], [-75.74620968260068, 36.17479718174319], [-75.74614172867797, 36.17460435447724], [-75.74607270667605, 36.1744108861316], [-75.74600271170289, 36.174216827511664], [-75.7459318326576, 36.1740222269189], [-75.74586015227818, 36.17382713011879], [-75.74578774706437, 36.173631580390285], [-75.7457146872747, 36.17343561858482], [-75.74564103593143, 36.173239283556924], [-75.74556685058663, 36.17304261167416], [-75.74549218307679, 36.17284563704054], [-75.74541708082666, 36.172648391207424], [-75.74534158503913, 36.17245090439819], [-75.74526573056997, 36.17225320539375], [-75.74518954801889, 36.1720553205361], [-75.74511306373599, 36.17185727440551], [-75.74503630124697, 36.17165908898001], [-75.74495927949718, 36.171460784948], [-75.74488201413956, 36.17126238146126], [-75.74480451791136, 36.171063896198284], [-75.74472680100295, 36.17086534542612], [-75.74464887121539, 36.170666744129136], [-75.7445707335453, 36.170468106327384], [-75.7444923923211, 36.17026944451174], [-75.7444138498917, 36.170070769876716], [-75.74433510843171, 36.16987209232635], [-75.7442561694237, 36.169673421095105], [-75.74417703322112, 36.16947476460802], [-75.74409770047944, 36.169276130115335], [-75.74401817224503, 36.1690775237778], [-75.74393844959529, 36.16887895089626], [-75.74385853289915, 36.16868041580225], [-75.74377842264147, 36.16848192210275], [-75.74369811999023, 36.16828347369954], [-75.74361762634214, 36.16808507389245], [-75.74353694240084, 36.16788672509027], [-75.7434560689741, 36.16768842819872], [-75.74337500762503, 36.167490184153], [-75.74329376097926, 36.16729199398741], [-75.74321233156007, 36.16709385847144], [-75.74313072081378, 36.166895778487266], [-75.74304893187332, 36.16669775563176], [-75.74296696723191, 36.166499792039446], [-75.74288482939717, 36.166301887816005], [-75.74280252087439, 36.16610404299181], [-75.74272004413791, 36.16590625763593], [-75.74263740160885, 36.16570853189046], [-75.7425545956413, 36.16551086600314], [-75.74247162851772, 36.16531326035864], [-75.74238850341719, 36.16511571582472], [-75.74230522244439, 36.164918233128596], [-75.74222178853027, 36.16472081285879], [-75.74213820363056, 36.16452345621637], [-75.74205446961051, 36.1643261647539], [-75.7419705875778, 36.16412894065215], [-75.74188656004655, 36.16393178603123], [-75.741802389781, 36.16373470340752], [-75.74171807987243, 36.16353769573422], [-75.74163363382134, 36.16334076644735], [-75.74154905569189, 36.16314391949486], [-75.7414643510539, 36.16294715910374], [-75.74137952496372, 36.16275049057202], [-75.7412945830214, 36.16255392001389], [-75.741209531185, 36.16235745454117], [-75.74112437733416, 36.162161101853755], [-75.74103913035233, 36.16196487069137], [-75.7409538004592, 36.161768770866395], [-75.74086839955329, 36.16157281330247], [-75.74078293979792, 36.16137701068585], [-75.74069743424307, 36.16118137742689], [-75.74061189719355, 36.16098592971734], [-75.7405263455476, 36.160790685262214], [-75.74044079774721, 36.16059566383824], [-75.74035527295871, 36.16040088777869], [-75.7402697912548, 36.160206382118965], [-75.74018437453707, 36.16001217449034], [-75.74009904678174, 36.1598182952467], [-75.74001383350168, 36.159624777858774], [-75.73992876237484, 36.15943165890388], [-75.7398438623432, 36.159238978574145], [-75.73975916337707, 36.159046780946895], [-75.7396746962076, 36.15885511425345], [-75.73959049379528, 36.15866403053642], [-75.73950659171506, 36.15847358565982], [-75.73942302631521, 36.15828384006052], [-75.7393398350796, 36.1580948587173], [-75.73925705592272, 36.15790671145685], [-75.73917472921363, 36.15771947228988], [-75.7390928966992, 36.157533219774876], [-75.73901160134221, 36.157348037028186], [-75.73893088725242, 36.1571640116593], [-75.73885079960823, 36.156981235664134], [-75.7387713845676, 36.15679980527407], [-75.7386926891683, 36.15661982075892], [-75.73861476220479, 36.15644138584389], [-75.73853765203066, 36.156264608129426], [-75.73846140734263, 36.15608959843583], [-75.73838607637664, 36.155916470640946], [-75.73831170874473, 36.15574534056121], [-75.73823835407741, 36.15557632587982], [-75.73816606194308, 36.15540954559058], [-75.73809488240907, 36.15524511917876], [-75.73802486383822, 36.15508316671153], [-75.73795605357513, 36.15492380790285], [-75.73788849755354, 36.15476716151991], [-75.73782224144117, 36.15461334423947], [-75.73775732944858, 36.15446247028991], [-75.73769380409821, 36.15431465075492], [-75.73763170599317, 36.15416999287641], [-75.73757107358729, 36.1540285993632], [-75.73751194295951, 36.15389056771337], [-75.73745434787851, 36.15375598945942], [-75.73739831976017, 36.15362494948142], [-75.73734388609334, 36.15349752588449], [-75.73729107121227, 36.15337378911735], [-75.73723989612293, 36.15325380146947], [-75.73719037834852, 36.15313761662154], [-75.73714253114476, 36.15302527947913], [-75.7370963643936, 36.15291682550163], [-75.73705188464254, 36.15281228040075], [-75.73700909453737, 36.15271166012684]]}}, {"type": "Feature", "properties": {"kind": "coastline_raw"}, "geometry": {"type": "LineString", "coordinates": [[-75.76603020593129, 36.2186740129755], [-75.76602581140112, 36.21822327263981], [-75.76574548710589, 36.2179996825705], [-75.7654651644058, 36.21777609181704], [-75.7654607732611, 36.21732535135401], [-75.76545638221393, 36.216874610856486], [-75.76517606439666, 36.21665101932607], [-75.76489574817444, 36.21642742711158], [-75.76489136051235, 36.21597668648674], [-75.76488697294776, 36.215525945827416], [-75.76460666160797, 36.21530235283606], [-75.76432635186312, 36.215078759160654], [-75.76432196768324, 36.214628018374064], [-75.76404166117688, 36.2144044239683], [-75.7637613562654, 36.214180828878526], [-75.76375697546996, 36.21373008796471], [-75.76375259477184, 36.213279347016424], [-75.76347229474212, 36.21305575114997], [-75.76319199630713, 36.212832154599575], [-75.76318761899309, 36.21238141352411], [-75.76318324177629, 36.21193067241417], [-75.76290294822267, 36.211707075087205], [-75.76262265626373, 36.21148347707636], [-75.76261828243062, 36.21103273583928], [-75.7626139086947, 36.21058199456773], [-75.76260953505592, 36.210131253261686], [-75.76232924962105, 36.209907654428065], [-75.76204896578068, 36.209684054910625], [-75.76176868353481, 36.20946045470937], [-75.76148840288344, 36.20923685382435], [-75.76148403591391, 36.20878611229868], [-75.76147966904138, 36.20833537073853], [-75.76119939327029, 36.20811176907721], [-75.76091911909357, 36.20788816673216], [-75.76091475560374, 36.20743742504502], [-75.76091039221083, 36.20698668332341], [-75.76063012291402, 36.20676308020217], [-75.76034985521147, 36.20653947639725], [-75.76034549520088, 36.2060887345487], [-75.76006523073525, 36.205865130013905], [-75.7597849678638, 36.205641524795475], [-75.75978061123524, 36.20519078282002], [-75.75977625470348, 36.2047400408101], [-75.75949599671125, 36.20451643481568], [-75.75921574031314, 36.20429282813766], [-75.75921138716303, 36.20384208600088], [-75.75920703410964, 36.20339134382965], [-75.75892678259034, 36.20316773637573], [-75.75864653266504, 36.20294412823829], [-75.75864218299293, 36.20249338594024], [-75.75836193630386, 36.202269777073134], [-75.75808169120869, 36.20204616752255], [-75.75807734491761, 36.20159542509774], [-75.75807299872307, 36.201144682638486], [-75.75779275850607, 36.20092107231217], [-75.75751251988288, 36.20069746130244], [-75.75750817706898, 36.200246718716464], [-75.75750383435157, 36.199795976096], [-75.75722360060614, 36.199572364310654], [-75.75694336845443, 36.199348751841924], [-75.75693902911729, 36.19889800909481], [-75.75693468987654, 36.19844726631324], [-75.7566544626022, 36.198223653068986], [-75.75637423692146, 36.198000039141434], [-75.75636990106064, 36.19754929623322], [-75.75608967861518, 36.1973256815763], [-75.75580945776328, 36.1971020662361], [-75.75580512528208, 36.19665132320132], [-75.75580079289713, 36.19620058013207], [-75.75579646060842, 36.19574983702838], [-75.75551624627474, 36.1955262208668], [-75.75523603353444, 36.19530260402202], [-75.75495582238753, 36.19507898649404], [-75.75467561283398, 36.19485536828288], [-75.75467128720727, 36.19440462496063], [-75.75466696167665, 36.193953881603925], [-75.75466263624212, 36.193503138212755], [-75.75438243320585, 36.19327951918046], [-75.75410223176281, 36.19305589946505], [-75.75409790970681, 36.19260515594746], [-75.75381771149816, 36.192381535502975], [-75.75353751488265, 36.19215791437542], [-75.75353319620488, 36.19170717073143], [-75.75352887762307, 36.191256427052984], [-75.7532486858828, 36.191032805150485], [-75.75296849573556, 36.19080918256496], [-75.75296418053162, 36.190358438760185], [-75.75295986542352, 36.18990769492093], [-75.75267968015113, 36.18968407156056], [-75.75239949647168, 36.189460447517234], [-75.7523951847411, 36.1890097035517], [-75.75239087310632, 36.18855895955169], [-75.7523865615673, 36.18810821551724], [-75.75210638440299, 36.18788459065326], [-75.75182620883149, 36.18766096510638], [-75.75182190066955, 36.18721022094569], [-75.75181759260332, 36.186759476750524], [-75.75153742190577, 36.18653585042901], [-75.75125725280088, 36.18631222342465], [-75.75125294811136, 36.185861479103295], [-75.75124864351746, 36.18541073474748], [-75.75096847928614, 36.185187106968584], [-75.75068831664741, 36.18496347850689], [-75.75068401542987, 36.18451273402492], [-75.75040385602402, 36.18428910483462], [-75.7501236982107, 36.18406547496158], [-75.74984354198989, 36.1838418444058], [-75.74956338736156, 36.18361821316729], [-75.74928323432572, 36.183394581246084], [-75.7490030828823, 36.1831709486422], [-75.74872293303133, 36.182947315355634], [-75.74844707286884, 36.18317442623471], [-75.74817121111391, 36.18340153648818], [-75.74789534776653, 36.183628646116034], [-75.74761948282666, 36.18385575511825], [-75.74734361629433, 36.18408286349481], [-75.74706774816946, 36.18430997124569], [-75.74679187845209, 36.1845370783709], [-75.74651600714215, 36.184764184870396], [-75.74595998555309, 36.18476765104269], [-75.74567983845907, 36.184544010658605], [-75.74539969295759, 36.18432036959195], [-75.74511954904867, 36.184096727842736], [-75.74483940673224, 36.18387308541097], [-75.74455926600832, 36.18364944229668], [-75.74427912687688, 36.18342579849986], [-75.74399898933788, 36.18320215402056], [-75.74427486261979, 36.18297505324218], [-75.74455073430926, 36.18274795183802], [-75.74482660440634, 36.18252084980811], [-75.745102472911, 36.18229374715248], [-75.74537833982332, 36.18206664387113], [-75.74593434239782, 36.18206318062204], [-75.74621020607798, 36.18183607545243], [-75.74648606816578, 36.18160896965717], [-75.7467662069177, 36.181832608358846], [-75.74704634726196, 36.182056246377975], [-75.74732648919857, 36.18227988371452], [-75.74760663272754, 36.18250352036849], [-75.74788249303285, 36.18227641140008], [-75.7481583517458, 36.182049301806074], [-75.74843420886641, 36.18182219158647], [-75.74871006439469, 36.18159508074129], [-75.74898591833063, 36.18136796927054], [-75.74898162743102, 36.18091722434149], [-75.74870148578, 36.180693590826124], [-75.74842134572123, 36.180469956628144], [-75.74841705819665, 36.180019211573125], [-75.74841277076732, 36.179568466483666], [-75.74840848343321, 36.179117721359745], [-75.74812834988597, 36.17889408634196], [-75.74784821793084, 36.178670450641654], [-75.74784393397134, 36.17821970539181], [-75.74783965010701, 36.17776896010753], [-75.74755952302317, 36.17754532363327], [-75.74727939753133, 36.17732168647652], [-75.74727511704123, 36.17687094106636], [-75.74699499478086, 36.176647303181454], [-75.74671487411241, 36.176423664614106], [-75.74671059699627, 36.17597291907812], [-75.7467063199751, 36.175522173507694], [-75.7464262041773, 36.17529853416658], [-75.7461460899713, 36.17507489414308], [-75.74614181632374, 36.174624148446874], [-75.74586170534877, 36.17440050769536], [-75.74558159596558, 36.1741768662615], [-75.7455773256913, 36.17372612043956], [-75.74557305551188, 36.17327537458317], [-75.74556878542734, 36.17282462869233], [-75.74556451543762, 36.172373882767054], [-75.74528441420244, 36.172150240468376], [-75.74500431455884, 36.17192659748742], [-75.74500004794191, 36.17147585143645], [-75.74499578141976, 36.17102510535105], [-75.74471568664549, 36.17080146159664], [-75.74443559346271, 36.170577817160016], [-75.74443133031298, 36.17012707094898], [-75.74442706725793, 36.16967632470348], [-75.74442280429759, 36.16922557842354], [-75.74441854143194, 36.16877483210918], [-75.74413845639546, 36.16855118680803], [-75.74385837295027, 36.16832754082476], [-75.74357829109637, 36.16810389415937], [-75.74329821083373, 36.167880246811876], [-75.74329395461704, 36.16742950028081], [-75.74328969849489, 36.166978753715306], [-75.74300962310042, 36.16675510559465], [-75.7427295492971, 36.166531456791944], [-75.74272529654627, 36.16608071010093], [-75.74272104388993, 36.16562996337549], [-75.74244097495438, 36.16540631379973], [-75.74216090760989, 36.16518266354196], [-75.7421566583245, 36.16473191669107], [-75.7421524091335, 36.16428116980572], [-75.74214816003688, 36.163830422885944], [-75.74186809919789, 36.16360677180974], [-75.74158803994982, 36.1633831200516], [-75.74158379422373, 36.16293237300642], [-75.74157954859193, 36.1624816259268], [-75.74129949421074, 36.1622579733958], [-75.74101944142036, 36.16203432018294], [-75.74101519915872, 36.16158357297797], [-75.740735149597, 36.16135991903779], [-75.74045510162601, 36.16113626441578], [-75.74045086273425, 36.1606855170855], [-75.74044662393665, 36.16023476972077], [-75.74044238523318, 36.159784022321624], [-75.74016234376609, 36.15956036688152], [-75.73988230388962, 36.15933671075967], [-75.7396022656037, 36.159113053956055], [-75.73932222890835, 36.1588893964707], [-75.73931799684945, 36.15843864885549], [-75.73931376488456, 36.15798790120585], [-75.73930953301368, 36.15753715352177], [-75.73902950282131, 36.15731349521857], [-75.73874947421935, 36.157089836233695], [-75.73874524571724, 36.15663908842445], [-75.73846522034302, 36.156415428712556], [-75.73818519655916, 36.15619176831904], [-75.73818097142554, 36.155741020384674], [-75.73817674638576, 36.15529027241586], [-75.73817252143984, 36.15483952441263], [-75.73789250415787, 36.154615863201506], [-75.73761248846614, 36.154392201308816], [-75.73760826688824, 36.1539414531805], [-75.73732825442374, 36.15371779056095], [-75.73704824354938, 36.153494127259876], [-75.73704402533926, 36.153043379006526], [-75.73703980722284, 36.15259263071876], [-75.7370355892001, 36.152141882396556], [-75.7367555848266, 36.15191821827813], [-75.73647558204306, 36.15169455347823], [-75.73647136738765, 36.151243805031044], [-75.73619136783087, 36.15102013950444]]}}, {"type": "Feature", "properties": {"kind": "transect", "id": 0, "origin_E": 431462.52505303454, "origin_N": 4007600.2441425323, "normal_E": 0.938803421884373, "normal_N": 0.344453385900316, "seaward_bearing_deg": 69.85156801087638}, "geometry": {"type": "LineString", "coordinates": [[-75.75987346227832, 36.211603357229215], [-75.73123336276788, 36.220321588939626]]}}, {"type": "Feature", "properties": {"kind": "transect", "id": 1, "origin_E": 431541.59331346053, "origin_N": 4007386.227848399, "normal_E": 0.9373104729796966, "normal_N": 0.34849544795101334, "seaward_bearing_deg": 69.60468242644279}, "geometry": {"type": "LineString", "coordinates": [[-75.75897949964556, 36.20968870106664], [-75.7303865986756, 36.21850664233159]]}}, {"type": "Feature", "properties": {"kind": "transect", "id": 2, "origin_E": 431622.1847263508, "origin_N": 4007170.412468991, "normal_E": 0.9364822890206201, "normal_N": 0.3507148732955298, "seaward_bearing_deg": 69.4689538140834}, "geometry": {"type": "LineString", "coordinates": [[-75.75806659358034, 36.20775382997435], [-75.72950013455706, 36.21662641617166]]}}, {"type": "Feature", "properties": {"kind": "transect", "id": 3, "origin_E": 431703.17506582465, "origin_N": 4006954.11413185, "normal_E": 0.9366911535254637, "normal_N": 0.35015665480915276, "seaward_bearing_deg": 69.50310288073396}, "geometry": {"type": "LineString", "coordinates": [[-75.75714630967961, 36.205808383286], [-75.72857392812386, 36.21466694585271]]}}, {"type": "Feature", "properties": {"kind": "transect", "id": 4, "origin_E": 431783.827539659, "origin_N": 4006737.539963134, "normal_E": 0.9376316137390069, "normal_N": 0.34763048905006244, "seaward_bearing_deg": 69.65754644961675}, "geometry": {"type": "LineString", "coordinates": [[-75.75622772920022, 36.20385599569406], [-75.72762659561191, 36.212651883700325]]}}, {"type": "Feature", "properties": {"kind": "transect", "id": 5, "origin_E": 431863.84948163445, "origin_N": 4006520.6861367864, "normal_E": 0.9386596245573002, "normal_N": 0.3448450510387937, "seaward_bearing_deg": 69.82766260391331}, "geometry": {"type": "LineString", "coordinates": [[-75.75531593510895, 36.201900451756856], [-75.72668331665407, 36.21062725494606]]}}, {"type": "Feature", "properties": {"kind": "transect", "id": 6, "origin_E": 431943.32251574483, "origin_N": 4006303.6049453584, "normal_E": 0.9393799065465948, "normal_N": 0.3428780995871723, "seaward_bearing_deg": 69.94767922082835}, "geometry": {"type": "LineString", "coordinates": [[-75.75441114610472, 36.19994465079687], [-75.72575664790205, 36.20862260427774]]}}, {"type": "Feature", "properties": {"kind": "transect", "id": 7, "origin_E": 432022.41629393614, "origin_N": 4006086.3732107216, "normal_E": 0.9399371161027388, "normal_N": 0.3413476494315822, "seaward_bearing_deg": 70.04099856421635}, "geometry": {"type": "LineString", "coordinates": [[-75.75351107091609, 36.19798843904309], [-75.72483978405171, 36.20662833464553]]}}, {"type": "Feature", "properties": {"kind": "transect", "id": 8, "origin_E": 432101.07794422744, "origin_N": 4005869.0506004095, "normal_E": 0.9407045721408075, "normal_N": 0.339226926928539, "seaward_bearing_deg": 70.17021871093377}, "geometry": {"type": "LineString", "coordinates": [[-75.75261524223369, 36.196030043272835], [-75.72392060371001, 36.2046172871638]]}}, {"type": "Feature", "properties": {"kind": "transect", "id": 9, "origin_E": 432179.1496169634, "origin_N": 4005651.909087604, "normal_E": 0.941126137619687, "normal_N": 0.3380556065043888, "seaward_bearing_deg": 70.24154468913811}, "geometry": {"type": "LineString", "coordinates": [[-75.75172701828646, 36.194075364642], [-75.7230198266827, 36.202633430976285]]}}, {"type": "Feature", "properties": {"kind": "transect", "id": 10, "origin_E": 432257.2416057232, "origin_N": 4005436.463707666, "normal_E": 0.9381231595121502, "normal_N": 0.3463018013047877, "seaward_bearing_deg": 69.7387171745409}, "geometry": {"type": "LineString", "coordinates": [[-75.75084848339795, 36.19215713482499], [-75.72223562092654, 36.200918863739446]]}}, {"type": "Feature", "properties": {"kind": "transect", "id": 11, "origin_E": 432338.00260162225, "origin_N": 4005227.340229209, "normal_E": 0.9248262667918512, "normal_N": 0.38038976885800674, "seaward_bearing_deg": 67.64217207648548}, "geometry": {"type": "LineString", "coordinates": [[-75.74997002846466, 36.190354135439286], [-75.72177218590484, 36.19995827505668]]}}, {"type": "Feature", "properties": {"kind": "transect", "id": 12, "origin_E": 432426.1912590616, "origin_N": 4005033.6918097213, "normal_E": 0.8893124822392485, "normal_N": 0.4573000207013622, "seaward_bearing_deg": 62.78698046337363}, "geometry": {"type": "LineString", "coordinates": [[-75.74907302764916, 36.188787274395835], [-75.72197938607464, 36.20029133834223]]}}, {"type": "Feature", "properties": {"kind": "transect", "id": 13, "origin_E": 432525.6379576337, "origin_N": 4004867.3757559643, "normal_E": 0.8180217232984152, "normal_N": 0.5751873261919904, "seaward_bearing_deg": 54.88724818197297}, "geometry": {"type": "LineString", "coordinates": [[-75.74815355369631, 36.18755931583782], [-75.72326764264125, 36.201972562300554]]}}, {"type": "Feature", "properties": {"kind": "transect", "id": 14, "origin_E": 432633.3479449316, "origin_N": 4004736.300998749, "normal_E": 0.7242676285014735, "normal_N": 0.6895189644272676, "seaward_bearing_deg": 46.40795721175591}, "geometry": {"type": "LineString", "coordinates": [[-75.74720760887985, 36.18664121647677], [-75.72521567408745, 36.203871323050755]]}}, {"type": "Feature", "properties": {"kind": "transect", "id": 15, "origin_E": 432735.2380309437, "origin_N": 4004637.0937135913, "normal_E": 0.6901996117980509, "normal_N": 0.723619026749449, "seaward_bearing_deg": 43.64591194805488}, "geometry": {"type": "LineString", "coordinates": [[-75.74616148087198, 36.18583020232355], [-75.72521942358777, 36.203899184128346]]}}, {"type": "Feature", "properties": {"kind": "transect", "id": 16, "origin_E": 432810.02797811304, "origin_N": 4004554.7744079037, "normal_E": 0.8259243107684416, "normal_N": 0.5637810150064249, "seaward_bearing_deg": 55.68231443141056}, "geometry": {"type": "LineString", "coordinates": [[-75.7449419996985, 36.18473540124984], [-75.71981206818354, 36.1988666626526]]}}, {"type": "Feature", "properties": {"kind": "transect", "id": 17, "origin_E": 432842.48799794447, "origin_N": 4004470.4847891806, "normal_E": 0.9930684600371759, "normal_N": 0.11753737141604018, "seaward_bearing_deg": 83.25000150249973}, "geometry": {"type": "LineString", "coordinates": [[-75.74409965170771, 36.182974962631], [-75.71375741331052, 36.18607376560227]]}}, {"type": "Feature", "properties": {"kind": "transect", "id": 18, "origin_E": 432836.58450804045, "origin_N": 4004369.2012894484, "normal_E": 0.9871356815584671, "normal_N": -0.15988479037763692, "seaward_bearing_deg": 99.20020910867089}, "geometry": {"type": "LineString", "coordinates": [[-75.74416724255659, 36.18143615696642], [-75.71394462041918, 36.17765627043808]]}}, {"type": "Feature", "properties": {"kind": "transect", "id": 19, "origin_E": 432815.35529833863, "origin_N": 4004241.935472015, "normal_E": 0.9909680628881807, "normal_N": -0.13409809221479108, "seaward_bearing_deg": 97.70647017638869}, "geometry": {"type": "LineString", "coordinates": [[-75.74438235192254, 36.18034558199274], [-75.71404875367834, 36.17720572620909]]}}, {"type": "Feature", "properties": {"kind": "transect", "id": 20, "origin_E": 432805.92608587083, "origin_N": 4004085.4711616924, "normal_E": 0.9998519119250475, "normal_N": 0.01720913187313694, "seaward_bearing_deg": 89.01394069956343}, "geometry": {"type": "LineString", "coordinates": [[-75.7444523870921, 36.17927557714786], [-75.71388157906608, 36.17988843842145]]}}, {"type": "Feature", "properties": {"kind": "transect", "id": 21, "origin_E": 432823.2540627192, "origin_N": 4003902.488500436, "normal_E": 0.9872046499403397, "normal_N": 0.15945839311924426, "seaward_bearing_deg": 80.8245391705718}, "geometry": {"type": "LineString", "coordinates": [[-75.74428229333463, 36.177947575160466], [-75.71413074659222, 36.18208460633466]]}}, {"type": "Feature", "properties": {"kind": "transect", "id": 22, "origin_E": 432866.075932984, "origin_N": 4003700.1233871216, "normal_E": 0.9699777870748225, "normal_N": 0.24319352906981392, "seaward_bearing_deg": 75.92489798990322}, "geometry": {"type": "LineString", "coordinates": [[-75.74383856406972, 36.17631464892321], [-75.71423325378997, 36.18252431227218]]}}, {"type": "Feature", "properties": {"kind": "transect", "id": 23, "origin_E": 432924.65096937626, "origin_N": 4003486.3994713505, "normal_E": 0.9602508428407811, "normal_N": 0.2791385298083543, "seaward_bearing_deg": 73.79120378660451}, "geometry": {"type": "LineString", "coordinates": [[-75.74319686201251, 36.17447283255497], [-75.71389772266821, 36.18157167688603]]}}, {"type": "Feature", "properties": {"kind": "transect", "id": 24, "origin_E": 432990.1607375717, "origin_N": 4003267.3857037816, "normal_E": 0.9564536739010733, "normal_N": 0.29188417168654307, "seaward_bearing_deg": 73.02920764515378}, "geometry": {"type": "LineString", "coordinates": [[-75.74246065931054, 36.17253161952231], [-75.71328114990064, 36.17994556619242]]}}, {"type": "Feature", "properties": {"kind": "transect", "id": 25, "origin_E": 433058.4369511986, "origin_N": 4003046.651250847, "normal_E": 0.9542577966465199, "normal_N": 0.29898504567842377, "seaward_bearing_deg": 72.6033471802559}, "geometry": {"type": "LineString", "coordinates": [[-75.74168901811913, 36.17056238538571], [-75.71257890120773, 36.17815177840102]]}}, {"type": "Feature", "properties": {"kind": "transect", "id": 26, "origin_E": 433128.5343370912, "origin_N": 4002825.8829946723, "normal_E": 0.9519287381400374, "normal_N": 0.306319567613817, "seaward_bearing_deg": 72.16243012402644}, "geometry": {"type": "LineString", "coordinates": [[-75.7408975405107, 36.168593490038276], [-75.71186093200949, 36.17636409385202]]}}, {"type": "Feature", "properties": {"kind": "transect", "id": 27, "origin_E": 433200.3243707052, "origin_N": 4002605.646022502, "normal_E": 0.9496244950562649, "normal_N": 0.31339004194315745, "seaward_bearing_deg": 71.73635057575878}, "geometry": {"type": "LineString", "coordinates": [[-75.74008725507508, 36.166628899505184], [-75.71112332634273, 36.17457416917434]]}}, {"type": "Feature", "properties": {"kind": "transect", "id": 28, "origin_E": 433273.61503929197, "origin_N": 4002386.0634286413, "normal_E": 0.9475150193367291, "normal_N": 0.31971125743601536, "seaward_bearing_deg": 71.35453613766751}, "geometry": {"type": "LineString", "coordinates": [[-75.73925982558193, 36.164668619280775], [-75.71036244313623, 36.172770012128794]]}}, {"type": "Feature", "properties": {"kind": "transect", "id": 29, "origin_E": 433348.17028190446, "origin_N": 4002167.310145899, "normal_E": 0.9456129754224092, "normal_N": 0.32529386823728795, "seaward_bearing_deg": 71.01662014750734}, "geometry": {"type": "LineString", "coordinates": [[-75.73841785734724, 36.162714234055194], [-75.7095805034544, 36.17095347434379]]}}, {"type": "Feature", "properties": {"kind": "transect", "id": 30, "origin_E": 433423.4003970751, "origin_N": 4001950.129794291, "normal_E": 0.944385497072881, "normal_N": 0.3288404368662825, "seaward_bearing_deg": 70.80159015817749}, "geometry": {"type": "LineString", "coordinates": [[-75.73756664411349, 36.1607694907475], [-75.70876822880186, 36.16909622334636]]}}]}