<?xml version="1.0" encoding="UTF-8" standalone="yes"?>
<kml xmlns="http://www.opengis.net/kml/2.2" xmlns:gx="http://www.google.com/kml/ext/2.2" xmlns:atom="http://www.w3.org/2005/Atom" xmlns:xal="urn:oasis:names:tc:ciq:xsdschema:xAL:2.0">
    <Document>
        <Style id="Default">
            <PolyStyle>
                <color>#8014B4FF</color>
                <fill>1</fill>
                <outline>1</outline>
            </PolyStyle>
        </Style>
        <Folder>
            <name>Spotlight-2</name>
            <Style id="Default">
                <PolyStyle>
                    <color>#8014B4FF</color>
                    <fill>1</fill>
                    <outline>1</outline>
                </PolyStyle>
            </Style>
            <Placemark>
                <name>2021-10-13T22:45:03.517Z</name>
                <styleUrl>#Default</styleUrl>
                <ExtendedData>
                    <Data>
                        <displayName>orbit_number</displayName>
                        <value>77645</value>
                    </Data>
                    <Data>
                        <displayName>lookside</displayName>
                        <value>RIGHT</value>
                    </Data>
                    <Data>
                        <displayName>acquisition_mode</displayName>
                        <value>Spotlight-2</value>
                    </Data>
                    <Data>
                        <displayName>off_nadir_angle</displayName>
                        <value>42.12</value>
                    </Data>
                    <Data>
                        <displayName>beam</displayName>
                        <value>ES-20</value>
                    </Data>
                    <Data>
                        <displayName>product_identifier</displayName>
                        <value>2098202</value>
                    </Data>
                    <Data>
                        <displayName>orbit_direction</displayName>
                        <value>DESCENDING</value>
                    </Data>
                    <Data>
                        <displayName>start_datetime</displayName>
                        <value>2021-10-13T22:45:03.517Z</value>
                    </Data>
                    <Data>
                        <displayName>end_datetime</displayName>
                        <value>2021-10-13T22:45:11.392Z</value>
                    </Data>
                    <Data>
                        <displayName>aoi_coverage_percentage</displayName>
                        <value>83.79523968157876</value>
                    </Data>
                    <Data>
                        <displayName>mission_type</displayName>
                        <value>SAR</value>
                    </Data>
                    <Data>
                        <displayName>platform</displayName>
                        <value>CSK1</value>
                    </Data>
                    <Data>
                        <displayName>mission</displayName>
                        <value>COSMO-SkyMed (I Generation)</value>
                    </Data>
                    <Data>
                        <displayName>ownership</displayName>
                        <value>public</value>
                    </Data>
                    <Data>
                        <displayName>data_type</displayName>
                        <value>satellite-imagery</value>
                    </Data>
                    <Data>
                        <displayName>acquisition_status</displayName>
                        <value>ARCHIVED</value>
                    </Data>
                    <Data>
                        <displayName>sensor</displayName>
                        <value>SAR-X</value>
                    </Data>
                    <Data>
                        <displayName>polarization</displayName>
                        <value>HH</value>
                    </Data>
                    <Data>
                        <displayName>resolution_class</displayName>
                        <value>VHR1b</value>
                    </Data>
                    <Data>
                        <displayName>dataset</displayName>
                        <value>COSMO-SkyMed</value>
                    </Data>
                    <Data>
                        <displayName>minimum_incidence_angle</displayName>
                        <value>47.447</value>
                    </Data>
                    <Data>
                        <displayName>maximum_incidence_angle</displayName>
                        <value>47.994</value>
                    </Data>
                </ExtendedData>
                <Polygon>
                    <outerBoundaryIs>
                        <LinearRing>
                            <coordinates>-75.67115,36.126213 -75.6521,36.219288 -75.767075,36.232708 -75.785896,36.141914 -75.67115,36.126213</coordinates>
                        </LinearRing>
                    </outerBoundaryIs>
                </Polygon>
            </Placemark>
            <Placemark>
                <name>2021-07-01T10:54:54.075Z</name>
                <styleUrl>#Default</styleUrl>
                <ExtendedData>
                    <Data>
                        <displayName>orbit_number</displayName>
                        <value>73372</value>
                    </Data>
                    <Data>
                        <displayName>lookside</displayName>
                        <value>RIGHT</value>
                    </Data>
                    <Data>
                        <displayName>acquisition_mode</displayName>
                        <value>Spotlight-2</value>
                    </Data>
                    <Data>
                        <displayName>off_nadir_angle</displayName>
                        <value>44.75</value>
                    </Data>
                    <Data>
                        <displayName>beam</displayName>
                        <value>ES-23</value>
                    </Data>
                    <Data>
                        <displayName>product_identifier</displayName>
                        <value>1942002</value>
                    </Data>
                    <Data>
                        <displayName>orbit_direction</displayName>
                        <value>ASCENDING</value>
                    </Data>
                    <Data>
                        <displayName>start_datetime</displayName>
                        <value>2021-07-01T10:54:54.075Z</value>
                    </Data>
                    <Data>
                        <displayName>end_datetime</displayName>
                        <value>2021-07-01T10:55:02.041Z</value>
                    </Data>
                    <Data>
                        <displayName>aoi_coverage_percentage</displayName>
                        <value>95.45853832219204</value>
                    </Data>
                    <Data>
                        <displayName>mission_type</displayName>
                        <value>SAR</value>
                    </Data>
                    <Data>
                        <displayName>platform</displayName>
                        <value>CSK2</value>
                    </Data>
                    <Data>
                        <displayName>mission</displayName>
                        <value>COSMO-SkyMed (I Generation)</value>
                    </Data>
                    <Data>
                        <displayName>ownership</displayName>
                        <value>public</value>
                    </Data>
                    <Data>
                        <displayName>data_type</displayName>
                        <value>satellite-imagery</value>
                    </Data>
                    <Data>
                        <displayName>acquisition_status</displayName>
                        <value>ARCHIVED</value>
                    </Data>
                    <Data>
                        <displayName>sensor</displayName>
                        <value>SAR-X</value>
                    </Data>
                    <Data>
                        <displayName>polarization</displayName>
                        <value>HH</value>
                    </Data>
                    <Data>
                        <displayName>resolution_class</displayName>
                        <value>VHR1b</value>
                    </Data>
                    <Data>
                        <displayName>dataset</displayName>
                        <value>COSMO-SkyMed</value>
                    </Data>
                    <Data>
                        <displayName>minimum_incidence_angle</displayName>
                        <value>50.376</value>
                    </Data>
                    <Data>
                        <displayName>maximum_incidence_angle</displayName>
                        <value>50.882</value>
                    </Data>
                </ExtendedData>
                <Polygon>
                    <outerBoundaryIs>
                        <LinearRing>
                            <coordinates>-75.684891,36.133453 -75.702873,36.227913 -75.818283,36.214989 -75.799721,36.118195 -75.684891,36.133453</coordinates>
                        </LinearRing>
                    </outerBoundaryIs>
                </Polygon>
            </Placemark>
            <Placemark>
                <name>2021-06-30T10:54:50.308Z</name>
                <styleUrl>#Default</styleUrl>
                <ExtendedData>
                    <Data>
                        <displayName>orbit_number</displayName>
                        <value>57608</value>
                    </Data>
                    <Data>
                        <displayName>lookside</displayName>
                        <value>RIGHT</value>
                    </Data>
                    <Data>
                        <displayName>acquisition_mode</displayName>
                        <value>Spotlight-2</value>
                    </Data>
                    <Data>
                        <displayName>off_nadir_angle</displayName>
                        <value>44.75</value>
                    </Data>
                    <Data>
                        <displayName>beam</displayName>
                        <value>ES-23</value>
                    </Data>
                    <Data>
                        <displayName>product_identifier</displayName>
                        <value>1942455</value>
                    </Data>
                    <Data>
                        <displayName>orbit_direction</displayName>
                        <value>ASCENDING</value>
                    </Data>
                    <Data>
                        <displayName>start_datetime</displayName>
                        <value>2021-06-30T10:54:50.308Z</value>
                    </Data>
                    <Data>
                        <displayName>end_datetime</displayName>
                        <value>2021-06-30T10:54:58.274Z</value>
                    </Data>
                    <Data>
                        <displayName>aoi_coverage_percentage</displayName>
                        <value>95.15823796681045</value>
                    </Data>
                    <Data>
                        <displayName>mission_type</displayName>
                        <value>SAR</value>
                    </Data>
                    <Data>
                        <displayName>platform</displayName>
                        <value>CSK4</value>
                    </Data>
                    <Data>
                        <displayName>mission</displayName>
                        <value>COSMO-SkyMed (I Generation)</value>
                    </Data>
                    <Data>
                        <displayName>ownership</displayName>
                        <value>public</value>
                    </Data>
                    <Data>
                        <displayName>data_type</displayName>
                        <value>satellite-imagery</value>
                    </Data>
                    <Data>
                        <displayName>acquisition_status</displayName>
                        <value>ARCHIVED</value>
                    </Data>
                    <Data>
                        <displayName>sensor</displayName>
                        <value>SAR-X</value>
                    </Data>
                    <Data>
                        <displayName>polarization</displayName>
                        <value>HH</value>
                    </Data>
                    <Data>
                        <displayName>resolution_class</displayName>
                        <value>VHR1b</value>
                    </Data>
                    <Data>
                        <displayName>dataset</displayName>
                        <value>COSMO-SkyMed</value>
                    </Data>
                    <Data>
                        <displayName>minimum_incidence_angle</displayName>
                        <value>50.323</value>
                    </Data>
                    <Data>
                        <displayName>maximum_incidence_angle</displayName>
                        <value>50.83</value>
                    </Data>
                </ExtendedData>
                <Polygon>
                    <outerBoundaryIs>
                        <LinearRing>
                            <coordinates>-75.68396,36.127419 -75.702248,36.221996 -75.817657,36.209133 -75.799156,36.112167 -75.68396,36.127419</coordinates>
                        </LinearRing>
                    </outerBoundaryIs>
                </Polygon>
            </Placemark>
            <Placemark>
                <name>2021-06-29T22:56:51.912Z</name>
                <styleUrl>#Default</styleUrl>
                <ExtendedData>
                    <Data>
                        <displayName>orbit_number</displayName>
                        <value>76075</value>
                    </Data>
                    <Data>
                        <displayName>lookside</displayName>
                        <value>RIGHT</value>
                    </Data>
                    <Data>
                        <displayName>acquisition_mode</displayName>
                        <value>Spotlight-2</value>
                    </Data>
                    <Data>
                        <displayName>off_nadir_angle</displayName>
                        <value>27.32</value>
                    </Data>
                    <Data>
                        <displayName>beam</displayName>
                        <value>ES-05</value>
                    </Data>
                    <Data>
                        <displayName>product_identifier</displayName>
                        <value>1941935</value>
                    </Data>
                    <Data>
                        <displayName>orbit_direction</displayName>
                        <value>DESCENDING</value>
                    </Data>
                    <Data>
                        <displayName>start_datetime</displayName>
                        <value>2021-06-29T22:56:51.912Z</value>
                    </Data>
                    <Data>
                        <displayName>end_datetime</displayName>
                        <value>2021-06-29T22:56:59.414Z</value>
                    </Data>
                    <Data>
                        <displayName>aoi_coverage_percentage</displayName>
                        <value>96.11260552145353</value>
                    </Data>
                    <Data>
                        <displayName>mission_type</displayName>
                        <value>SAR</value>
                    </Data>
                    <Data>
                        <displayName>platform</displayName>
                        <value>CSK1</value>
                    </Data>
                    <Data>
                        <displayName>mission</displayName>
                        <value>COSMO-SkyMed (I Generation)</value>
                    </Data>
                    <Data>
                        <displayName>ownership</displayName>
                        <value>public</value>
                    </Data>
                    <Data>
                        <displayName>data_type</displayName>
                        <value>satellite-imagery</value>
                    </Data>
                    <Data>
                        <displayName>acquisition_status</displayName>
                        <value>ARCHIVED</value>
                    </Data>
                    <Data>
                        <displayName>sensor</displayName>
                        <value>SAR-X</value>
                    </Data>
                    <Data>
                        <displayName>polarization</displayName>
                        <value>HH</value>
                    </Data>
                    <Data>
                        <displayName>resolution_class</displayName>
                        <value>VHR1b</value>
                    </Data>
                    <Data>
                        <displayName>dataset</displayName>
                        <value>COSMO-SkyMed</value>
                    </Data>
                    <Data>
                        <displayName>minimum_incidence_angle</displayName>
                        <value>30.153</value>
                    </Data>
                    <Data>
                        <displayName>maximum_incidence_angle</displayName>
                        <value>30.965</value>
                    </Data>
                </ExtendedData>
                <Polygon>
                    <outerBoundaryIs>
                        <LinearRing>
                            <coordinates>-75.700958,36.125114 -75.676666,36.224659 -75.790733,36.24086 -75.815079,36.143616 -75.700958,36.125114</coordinates>
                        </LinearRing>
                    </outerBoundaryIs>
                </Polygon>
            </Placemark>
            <Placemark>
                <name>2021-04-22T22:50:52.696Z</name>
                <styleUrl>#Default</styleUrl>
                <ExtendedData>
                    <Data>
                        <displayName>orbit_number</displayName>
                        <value>56593</value>
                    </Data>
                    <Data>
                        <displayName>lookside</displayName>
                        <value>RIGHT</value>
                    </Data>
                    <Data>
                        <displayName>acquisition_mode</displayName>
                        <value>Spotlight-2</value>
                    </Data>
                    <Data>
                        <displayName>off_nadir_angle</displayName>
                        <value>35.76</value>
                    </Data>
                    <Data>
                        <displayName>beam</displayName>
                        <value>ES-13</value>
                    </Data>
                    <Data>
                        <displayName>product_identifier</displayName>
                        <value>1822894</value>
                    </Data>
                    <Data>
                        <displayName>orbit_direction</displayName>
                        <value>DESCENDING</value>
                    </Data>
                    <Data>
                        <displayName>start_datetime</displayName>
                        <value>2021-04-22T22:50:52.696Z</value>
                    </Data>
                    <Data>
                        <displayName>end_datetime</displayName>
                        <value>2021-04-22T22:51:00.363Z</value>
                    </Data>
                    <Data>
                        <displayName>aoi_coverage_percentage</displayName>
                        <value>95.79988532954908</value>
                    </Data>
                    <Data>
                        <displayName>mission_type</displayName>
                        <value>SAR</value>
                    </Data>
                    <Data>
                        <displayName>platform</displayName>
                        <value>CSK4</value>
                    </Data>
                    <Data>
                        <displayName>mission</displayName>
                        <value>COSMO-SkyMed (I Generation)</value>
                    </Data>
                    <Data>
                        <displayName>ownership</displayName>
                        <value>public</value>
                    </Data>
                    <Data>
                        <displayName>data_type</displayName>
                        <value>satellite-imagery</value>
                    </Data>
                    <Data>
                        <displayName>acquisition_status</displayName>
                        <value>ARCHIVED</value>
                    </Data>
                    <Data>
                        <displayName>sensor</displayName>
                        <value>SAR-X</value>
                    </Data>
                    <Data>
                        <displayName>polarization</displayName>
                        <value>HH</value>
                    </Data>
                    <Data>
                        <displayName>resolution_class</displayName>
                        <value>VHR1b</value>
                    </Data>
                    <Data>
                        <displayName>dataset</displayName>
                        <value>COSMO-SkyMed</value>
                    </Data>
                    <Data>
                        <displayName>minimum_incidence_angle</displayName>
                        <value>39.645</value>
                    </Data>
                    <Data>
                        <displayName>maximum_incidence_angle</displayName>
                        <value>40.316</value>
                    </Data>
                </ExtendedData>
                <Polygon>
                    <outerBoundaryIs>
                        <LinearRing>
                            <coordinates>-75.697243,36.134563 -75.67675,36.227024 -75.791306,36.241898 -75.811691,36.151691 -75.697243,36.134563</coordinates>
                        </LinearRing>
                    </outerBoundaryIs>
                </Polygon>
            </Placemark>
            <Placemark>
                <name>2021-04-22T10:42:49.799Z</name>
                <styleUrl>#Default</styleUrl>
                <ExtendedData>
                    <Data>
                        <displayName>orbit_number</displayName>
                        <value>72335</value>
                    </Data>
                    <Data>
                        <displayName>lookside</displayName>
                        <value>RIGHT</value>
                    </Data>
                    <Data>
                        <displayName>acquisition_mode</displayName>
                        <value>Spotlight-2</value>
                    </Data>
                    <Data>
                        <displayName>off_nadir_angle</displayName>
                        <value>30.85</value>
                    </Data>
                    <Data>
                        <displayName>beam</displayName>
                        <value>ES-08</value>
                    </Data>
                    <Data>
                        <displayName>product_identifier</displayName>
                        <value>1821124</value>
                    </Data>
                    <Data>
                        <displayName>orbit_direction</displayName>
                        <value>ASCENDING</value>
                    </Data>
                    <Data>
                        <displayName>start_datetime</displayName>
                        <value>2021-04-22T10:42:49.799Z</value>
                    </Data>
                    <Data>
                        <displayName>end_datetime</displayName>
                        <value>2021-04-22T10:42:57.362Z</value>
                    </Data>
                    <Data>
                        <displayName>aoi_coverage_percentage</displayName>
                        <value>96.84588455960089</value>
                    </Data>
                    <Data>
                        <displayName>mission_type</displayName>
                        <value>SAR</value>
                    </Data>
                    <Data>
                        <displayName>platform</displayName>
                        <value>CSK2</value>
                    </Data>
                    <Data>
                        <displayName>mission</displayName>
                        <value>COSMO-SkyMed (I Generation)</value>
                    </Data>
                    <Data>
                        <displayName>ownership</displayName>
                        <value>public</value>
                    </Data>
                    <Data>
                        <displayName>data_type</displayName>
                        <value>satellite-imagery</value>
                    </Data>
                    <Data>
                        <displayName>acquisition_status</displayName>
                        <value>ARCHIVED</value>
                    </Data>
                    <Data>
                        <displayName>sensor</displayName>
                        <value>SAR-X</value>
                    </Data>
                    <Data>
                        <displayName>polarization</displayName>
                        <value>HH</value>
                    </Data>
                    <Data>
                        <displayName>resolution_class</displayName>
                        <value>VHR1b</value>
                    </Data>
                    <Data>
                        <displayName>dataset</displayName>
                        <value>COSMO-SkyMed</value>
                    </Data>
                    <Data>
                        <displayName>minimum_incidence_angle</displayName>
                        <value>34.242</value>
                    </Data>
                    <Data>
                        <displayName>maximum_incidence_angle</displayName>
                        <value>35.001</value>
                    </Data>
                </ExtendedData>
                <Polygon>
                    <outerBoundaryIs>
                        <LinearRing>
                            <coordinates>-75.683258,36.139408 -75.704407,36.231609 -75.819267,36.215797 -75.797501,36.121433 -75.683258,36.139408</coordinates>
                        </LinearRing>
                    </outerBoundaryIs>
                </Polygon>
            </Placemark>
            <Placemark>
                <name>2021-04-21T10:42:51.000Z</name>
                <styleUrl>#Default</styleUrl>
                <ExtendedData>
                    <Data>
                        <displayName>orbit_number</displayName>
                        <value>56571</value>
                    </Data>
                    <Data>
                        <displayName>lookside</displayName>
                        <value>RIGHT</value>
                    </Data>
                    <Data>
                        <displayName>acquisition_mode</displayName>
                        <value>Spotlight-2</value>
                    </Data>
                    <Data>
                        <displayName>off_nadir_angle</displayName>
                        <value>30.85</value>
                    </Data>
                    <Data>
                        <displayName>beam</displayName>
                        <value>ES-08</value>
                    </Data>
                    <Data>
                        <displayName>product_identifier</displayName>
                        <value>1817405</value>
                    </Data>
                    <Data>
                        <displayName>orbit_direction</displayName>
                        <value>ASCENDING</value>
                    </Data>
                    <Data>
                        <displayName>start_datetime</displayName>
                        <value>2021-04-21T10:42:51.000Z</value>
                    </Data>
                    <Data>
                        <displayName>end_datetime</displayName>
                        <value>2021-04-21T10:42:58.563Z</value>
                    </Data>
                    <Data>
                        <displayName>aoi_coverage_percentage</displayName>
                        <value>94.51364032963657</value>
                    </Data>
                    <Data>
                        <displayName>mission_type</displayName>
                        <value>SAR</value>
                    </Data>
                    <Data>
                        <displayName>platform</displayName>
                        <value>CSK4</value>
                    </Data>
                    <Data>
                        <displayName>mission</displayName>
                        <value>COSMO-SkyMed (I Generation)</value>
                    </Data>
                    <Data>
                        <displayName>ownership</displayName>
                        <value>public</value>
                    </Data>
                    <Data>
                        <displayName>data_type</displayName>
                        <value>satellite-imagery</value>
                    </Data>
                    <Data>
                        <displayName>acquisition_status</displayName>
                        <value>ARCHIVED</value>
                    </Data>
                    <Data>
                        <displayName>sensor</displayName>
                        <value>SAR-X</value>
                    </Data>
                    <Data>
                        <displayName>polarization</displayName>
                        <value>HH</value>
                    </Data>
                    <Data>
                        <displayName>resolution_class</displayName>
                        <value>VHR1b</value>
                    </Data>
                    <Data>
                        <displayName>dataset</displayName>
                        <value>COSMO-SkyMed</value>
                    </Data>
                    <Data>
                        <displayName>minimum_incidence_angle</displayName>
                        <value>34.292</value>
                    </Data>
                    <Data>
                        <displayName>maximum_incidence_angle</displayName>
                        <value>35.051</value>
                    </Data>
                </ExtendedData>
                <Polygon>
                    <outerBoundaryIs>
                        <LinearRing>
                            <coordinates>-75.684662,36.133976 -75.706047,36.226212 -75.820923,36.210464 -75.799553,36.115978 -75.684662,36.133976</coordinates>
                        </LinearRing>
                    </outerBoundaryIs>
                </Polygon>
            </Placemark>
            <Placemark>
                <name>2020-12-11T22:56:54.921Z</name>
                <styleUrl>#Default</styleUrl>
                <ExtendedData>
                    <Data>
                        <displayName>orbit_number</displayName>
                        <value>70387</value>
                    </Data>
                    <Data>
                        <displayName>lookside</displayName>
                        <value>RIGHT</value>
                    </Data>
                    <Data>
                        <displayName>acquisition_mode</displayName>
                        <value>Spotlight-2</value>
                    </Data>
                    <Data>
                        <displayName>off_nadir_angle</displayName>
                        <value>27.32</value>
                    </Data>
                    <Data>
                        <displayName>beam</displayName>
                        <value>ES-05</value>
                    </Data>
                    <Data>
                        <displayName>product_identifier</displayName>
                        <value>1652288</value>
                    </Data>
                    <Data>
                        <displayName>orbit_direction</displayName>
                        <value>DESCENDING</value>
                    </Data>
                    <Data>
                        <displayName>start_datetime</displayName>
                        <value>2020-12-11T22:56:54.921Z</value>
                    </Data>
                    <Data>
                        <displayName>end_datetime</displayName>
                        <value>2020-12-11T22:57:02.422Z</value>
                    </Data>
                    <Data>
                        <displayName>aoi_coverage_percentage</displayName>
                        <value>95.73363060158161</value>
                    </Data>
                    <Data>
                        <displayName>mission_type</displayName>
                        <value>SAR</value>
                    </Data>
                    <Data>
                        <displayName>platform</displayName>
                        <value>CSK2</value>
                    </Data>
                    <Data>
                        <displayName>mission</displayName>
                        <value>COSMO-SkyMed (I Generation)</value>
                    </Data>
                    <Data>
                        <displayName>ownership</displayName>
                        <value>public</value>
                    </Data>
                    <Data>
                        <displayName>data_type</displayName>
                        <value>satellite-imagery</value>
                    </Data>
                    <Data>
                        <displayName>acquisition_status</displayName>
                        <value>ARCHIVED</value>
                    </Data>
                    <Data>
                        <displayName>sensor</displayName>
                        <value>SAR-X</value>
                    </Data>
                    <Data>
                        <displayName>polarization</displayName>
                        <value>HH</value>
                    </Data>
                    <Data>
                        <displayName>resolution_class</displayName>
                        <value>VHR1b</value>
                    </Data>
                    <Data>
                        <displayName>dataset</displayName>
                        <value>COSMO-SkyMed</value>
                    </Data>
                    <Data>
                        <displayName>minimum_incidence_angle</displayName>
                        <value>30.069</value>
                    </Data>
                    <Data>
                        <displayName>maximum_incidence_angle</displayName>
                        <value>30.881</value>
                    </Data>
                </ExtendedData>
                <Polygon>
                    <outerBoundaryIs>
                        <LinearRing>
                            <coordinates>-75.701302,36.125622 -75.677139,36.224506 -75.791214,36.240585 -75.815453,36.143997 -75.701302,36.125622</coordinates>
                        </LinearRing>
                    </outerBoundaryIs>
                </Polygon>
            </Placemark>
            <Placemark>
                <name>2020-12-10T22:56:54.971Z</name>
                <styleUrl>#Default</styleUrl>
                <ExtendedData>
                    <Data>
                        <displayName>orbit_number</displayName>
                        <value>54623</value>
                    </Data>
                    <Data>
                        <displayName>lookside</displayName>
                        <value>RIGHT</value>
                    </Data>
                    <Data>
                        <displayName>acquisition_mode</displayName>
                        <value>Spotlight-2</value>
                    </Data>
                    <Data>
                        <displayName>off_nadir_angle</displayName>
                        <value>27.32</value>
                    </Data>
                    <Data>
                        <displayName>beam</displayName>
                        <value>ES-05</value>
                    </Data>
                    <Data>
                        <displayName>product_identifier</displayName>
                        <value>1651720</value>
                    </Data>
                    <Data>
                        <displayName>orbit_direction</displayName>
                        <value>DESCENDING</value>
                    </Data>
                    <Data>
                        <displayName>start_datetime</displayName>
                        <value>2020-12-10T22:56:54.971Z</value>
                    </Data>
                    <Data>
                        <displayName>end_datetime</displayName>
                        <value>2020-12-10T22:57:02.473Z</value>
                    </Data>
                    <Data>
                        <displayName>aoi_coverage_percentage</displayName>
                        <value>95.68461748867647</value>
                    </Data>
                    <Data>
                        <displayName>mission_type</displayName>
                        <value>SAR</value>
                    </Data>
                    <Data>
                        <displayName>platform</displayName>
                        <value>CSK4</value>
                    </Data>
                    <Data>
                        <displayName>mission</displayName>
                        <value>COSMO-SkyMed (I Generation)</value>
                    </Data>
                    <Data>
                        <displayName>ownership</displayName>
                        <value>public</value>
                    </Data>
                    <Data>
                        <displayName>data_type</displayName>
                        <value>satellite-imagery</value>
                    </Data>
                    <Data>
                        <displayName>acquisition_status</displayName>
                        <value>ARCHIVED</value>
                    </Data>
                    <Data>
                        <displayName>sensor</displayName>
                        <value>SAR-X</value>
                    </Data>
                    <Data>
                        <displayName>polarization</displayName>
                        <value>HH</value>
                    </Data>
                    <Data>
                        <displayName>resolution_class</displayName>
                        <value>VHR1b</value>
                    </Data>
                    <Data>
                        <displayName>dataset</displayName>
                        <value>COSMO-SkyMed</value>
                    </Data>
                    <Data>
                        <displayName>minimum_incidence_angle</displayName>
                        <value>30.07</value>
                    </Data>
                    <Data>
                        <displayName>maximum_incidence_angle</displayName>
                        <value>30.883</value>
                    </Data>
                </ExtendedData>
                <Polygon>
                    <outerBoundaryIs>
                        <LinearRing>
                            <coordinates>-75.700348,36.129436 -75.676498,36.227894 -75.790565,36.244091 -75.814484,36.147923 -75.700348,36.129436</coordinates>
                        </LinearRing>
                    </outerBoundaryIs>
                </Polygon>
            </Placemark>
            <Placemark>
                <name>2020-11-13T10:42:51.866Z</name>
                <styleUrl>#Default</styleUrl>
                <ExtendedData>
                    <Data>
                        <displayName>orbit_number</displayName>
                        <value>69965</value>
                    </Data>
                    <Data>
                        <displayName>lookside</displayName>
                        <value>RIGHT</value>
                    </Data>
                    <Data>
                        <displayName>acquisition_mode</displayName>
                        <value>Spotlight-2</value>
                    </Data>
                    <Data>
                        <displayName>off_nadir_angle</displayName>
                        <value>30.85</value>
                    </Data>
                    <Data>
                        <displayName>beam</displayName>
                        <value>ES-08</value>
                    </Data>
                    <Data>
                        <displayName>product_identifier</displayName>
                        <value>1598376</value>
                    </Data>
                    <Data>
                        <displayName>orbit_direction</displayName>
                        <value>ASCENDING</value>
                    </Data>
                    <Data>
                        <displayName>start_datetime</displayName>
                        <value>2020-11-13T10:42:51.866Z</value>
                    </Data>
                    <Data>
                        <displayName>end_datetime</displayName>
                        <value>2020-11-13T10:42:59.398Z</value>
                    </Data>
                    <Data>
                        <displayName>aoi_coverage_percentage</displayName>
                        <value>95.43216953046763</value>
                    </Data>
                    <Data>
                        <displayName>mission_type</displayName>
                        <value>SAR</value>
                    </Data>
                    <Data>
                        <displayName>platform</displayName>
                        <value>CSK2</value>
                    </Data>
                    <Data>
                        <displayName>mission</displayName>
                        <value>COSMO-SkyMed (I Generation)</value>
                    </Data>
                    <Data>
                        <displayName>ownership</displayName>
                        <value>public</value>
                    </Data>
                    <Data>
                        <displayName>data_type</displayName>
                        <value>satellite-imagery</value>
                    </Data>
                    <Data>
                        <displayName>acquisition_status</displayName>
                        <value>ARCHIVED</value>
                    </Data>
                    <Data>
                        <displayName>sensor</displayName>
                        <value>SAR-X</value>
                    </Data>
                    <Data>
                        <displayName>polarization</displayName>
                        <value>HH</value>
                    </Data>
                    <Data>
                        <displayName>resolution_class</displayName>
                        <value>VHR1b</value>
                    </Data>
                    <Data>
                        <displayName>dataset</displayName>
                        <value>COSMO-SkyMed</value>
                    </Data>
                    <Data>
                        <displayName>minimum_incidence_angle</displayName>
                        <value>34.134</value>
                    </Data>
                    <Data>
                        <displayName>maximum_incidence_angle</displayName>
                        <value>34.895</value>
                    </Data>
                </ExtendedData>
                <Polygon>
                    <outerBoundaryIs>
                        <LinearRing>
                            <coordinates>-75.684639,36.138062 -75.705513,36.228939 -75.820358,36.213097 -75.798866,36.120049 -75.684639,36.138062</coordinates>
                        </LinearRing>
                    </outerBoundaryIs>
                </Polygon>
            </Placemark>
            <Placemark>
                <name>2020-11-10T10:36:52.328Z</name>
                <styleUrl>#Default</styleUrl>
                <ExtendedData>
                    <Data>
                        <displayName>orbit_number</displayName>
                        <value>72646</value>
                    </Data>
                    <Data>
                        <displayName>lookside</displayName>
                        <value>RIGHT</value>
                    </Data>
                    <Data>
                        <displayName>acquisition_mode</displayName>
                        <value>Spotlight-2</value>
                    </Data>
                    <Data>
                        <displayName>off_nadir_angle</displayName>
                        <value>21.27</value>
                    </Data>
                    <Data>
                        <displayName>beam</displayName>
                        <value>ES-0C</value>
                    </Data>
                    <Data>
                        <displayName>product_identifier</displayName>
                        <value>1589659</value>
                    </Data>
                    <Data>
                        <displayName>orbit_direction</displayName>
                        <value>ASCENDING</value>
                    </Data>
                    <Data>
                        <displayName>start_datetime</displayName>
                        <value>2020-11-10T10:36:52.328Z</value>
                    </Data>
                    <Data>
                        <displayName>end_datetime</displayName>
                        <value>2020-11-10T10:36:59.688Z</value>
                    </Data>
                    <Data>
                        <displayName>aoi_coverage_percentage</displayName>
                        <value>73.12884912319599</value>
                    </Data>
                    <Data>
                        <displayName>mission_type</displayName>
                        <value>SAR</value>
                    </Data>
                    <Data>
                        <displayName>platform</displayName>
                        <value>CSK1</value>
                    </Data>
                    <Data>
                        <displayName>mission</displayName>
                        <value>COSMO-SkyMed (I Generation)</value>
                    </Data>
                    <Data>
                        <displayName>ownership</displayName>
                        <value>public</value>
                    </Data>
                    <Data>
                        <displayName>data_type</displayName>
                        <value>satellite-imagery</value>
                    </Data>
                    <Data>
                        <displayName>acquisition_status</displayName>
                        <value>ARCHIVED</value>
                    </Data>
                    <Data>
                        <displayName>sensor</displayName>
                        <value>SAR-X</value>
                    </Data>
                    <Data>
                        <displayName>polarization</displayName>
                        <value>HH</value>
                    </Data>
                    <Data>
                        <displayName>resolution_class</displayName>
                        <value>VHR1b</value>
                    </Data>
                    <Data>
                        <displayName>dataset</displayName>
                        <value>COSMO-SkyMed</value>
                    </Data>
                    <Data>
                        <displayName>minimum_incidence_angle</displayName>
                        <value>23.266</value>
                    </Data>
                    <Data>
                        <displayName>maximum_incidence_angle</displayName>
                        <value>24.174</value>
                    </Data>
                </ExtendedData>
                <Polygon>
                    <outerBoundaryIs>
                        <LinearRing>
                            <coordinates>-75.709053,36.137844 -75.731529,36.227299 -75.847054,36.209866 -75.823921,36.1185 -75.709053,36.137844</coordinates>
                        </LinearRing>
                    </outerBoundaryIs>
                </Polygon>
            </Placemark>
            <Placemark>
                <name>2020-10-09T10:36:55.278Z</name>
                <styleUrl>#Default</styleUrl>
                <ExtendedData>
                    <Data>
                        <displayName>orbit_number</displayName>
                        <value>72172</value>
                    </Data>
                    <Data>
                        <displayName>lookside</displayName>
                        <value>RIGHT</value>
                    </Data>
                    <Data>
                        <displayName>acquisition_mode</displayName>
                        <value>Spotlight-2</value>
                    </Data>
                    <Data>
                        <displayName>off_nadir_angle</displayName>
                        <value>21.27</value>
                    </Data>
                    <Data>
                        <displayName>beam</displayName>
                        <value>ES-0C</value>
                    </Data>
                    <Data>
                        <displayName>product_identifier</displayName>
                        <value>1505527</value>
                    </Data>
                    <Data>
                        <displayName>orbit_direction</displayName>
                        <value>ASCENDING</value>
                    </Data>
                    <Data>
                        <displayName>start_datetime</displayName>
                        <value>2020-10-09T10:36:55.278Z</value>
                    </Data>
                    <Data>
                        <displayName>end_datetime</displayName>
                        <value>2020-10-09T10:37:02.638Z</value>
                    </Data>
                    <Data>
                        <displayName>aoi_coverage_percentage</displayName>
                        <value>64.7227130933432</value>
                    </Data>
                    <Data>
                        <displayName>mission_type</displayName>
                        <value>SAR</value>
                    </Data>
                    <Data>
                        <displayName>platform</displayName>
                        <value>CSK1</value>
                    </Data>
                    <Data>
                        <displayName>mission</displayName>
                        <value>COSMO-SkyMed (I Generation)</value>
                    </Data>
                    <Data>
                        <displayName>ownership</displayName>
                        <value>public</value>
                    </Data>
                    <Data>
                        <displayName>data_type</displayName>
                        <value>satellite-imagery</value>
                    </Data>
                    <Data>
                        <displayName>acquisition_status</displayName>
                        <value>ARCHIVED</value>
                    </Data>
                    <Data>
                        <displayName>sensor</displayName>
                        <value>SAR-X</value>
                    </Data>
                    <Data>
                        <displayName>polarization</displayName>
                        <value>HH</value>
                    </Data>
                    <Data>
                        <displayName>resolution_class</displayName>
                        <value>VHR1b</value>
                    </Data>
                    <Data>
                        <displayName>dataset</displayName>
                        <value>COSMO-SkyMed</value>
                    </Data>
                    <Data>
                        <displayName>minimum_incidence_angle</displayName>
                        <value>23.3</value>
                    </Data>
                    <Data>
                        <displayName>maximum_incidence_angle</displayName>
                        <value>24.207</value>
                    </Data>
                </ExtendedData>
                <Polygon>
                    <outerBoundaryIs>
                        <LinearRing>
                            <coordinates>-75.720428,36.145359 -75.742844,36.234978 -75.858353,36.217491 -75.835266,36.125961 -75.720428,36.145359</coordinates>
                        </LinearRing>
                    </outerBoundaryIs>
                </Polygon>
            </Placemark>
            <Placemark>
                <name>2020-10-08T22:56:58.303Z</name>
                <styleUrl>#Default</styleUrl>
                <ExtendedData>
                    <Data>
                        <displayName>orbit_number</displayName>
                        <value>69439</value>
                    </Data>
                    <Data>
                        <displayName>lookside</displayName>
                        <value>RIGHT</value>
                    </Data>
                    <Data>
                        <displayName>acquisition_mode</displayName>
                        <value>Spotlight-2</value>
                    </Data>
                    <Data>
                        <displayName>off_nadir_angle</displayName>
                        <value>27.32</value>
                    </Data>
                    <Data>
                        <displayName>beam</displayName>
                        <value>ES-05</value>
                    </Data>
                    <Data>
                        <displayName>product_identifier</displayName>
                        <value>1504216</value>
                    </Data>
                    <Data>
                        <displayName>orbit_direction</displayName>
                        <value>DESCENDING</value>
                    </Data>
                    <Data>
                        <displayName>start_datetime</displayName>
                        <value>2020-10-08T22:56:58.303Z</value>
                    </Data>
                    <Data>
                        <displayName>end_datetime</displayName>
                        <value>2020-10-08T22:57:05.811Z</value>
                    </Data>
                    <Data>
                        <displayName>aoi_coverage_percentage</displayName>
                        <value>97.2884577381348</value>
                    </Data>
                    <Data>
                        <displayName>mission_type</displayName>
                        <value>SAR</value>
                    </Data>
                    <Data>
                        <displayName>platform</displayName>
                        <value>CSK2</value>
                    </Data>
                    <Data>
                        <displayName>mission</displayName>
                        <value>COSMO-SkyMed (I Generation)</value>
                    </Data>
                    <Data>
                        <displayName>ownership</displayName>
                        <value>public</value>
                    </Data>
                    <Data>
                        <displayName>data_type</displayName>
                        <value>satellite-imagery</value>
                    </Data>
                    <Data>
                        <displayName>acquisition_status</displayName>
                        <value>ARCHIVED</value>
                    </Data>
                    <Data>
                        <displayName>sensor</displayName>
                        <value>SAR-X</value>
                    </Data>
                    <Data>
                        <displayName>polarization</displayName>
                        <value>HH</value>
                    </Data>
                    <Data>
                        <displayName>resolution_class</displayName>
                        <value>VHR1b</value>
                    </Data>
                    <Data>
                        <displayName>dataset</displayName>
                        <value>COSMO-SkyMed</value>
                    </Data>
                    <Data>
                        <displayName>minimum_incidence_angle</displayName>
                        <value>30.03</value>
                    </Data>
                    <Data>
                        <displayName>maximum_incidence_angle</displayName>
                        <value>30.843</value>
                    </Data>
                </ExtendedData>
                <Polygon>
                    <outerBoundaryIs>
                        <LinearRing>
                            <coordinates>-75.699142,36.126202 -75.674896,36.2253 -75.788971,36.241432 -75.813271,36.144642 -75.699142,36.126202</coordinates>
                        </LinearRing>
                    </outerBoundaryIs>
                </Polygon>
            </Placemark>
            <Placemark>
                <name>2020-09-11T22:50:52.021Z</name>
                <styleUrl>#Default</styleUrl>
                <ExtendedData>
                    <Data>
                        <displayName>orbit_number</displayName>
                        <value>69039</value>
                    </Data>
                    <Data>
                        <displayName>lookside</displayName>
                        <value>RIGHT</value>
                    </Data>
                    <Data>
                        <displayName>acquisition_mode</displayName>
                        <value>Spotlight-2</value>
                    </Data>
                    <Data>
                        <displayName>off_nadir_angle</displayName>
                        <value>35.76</value>
                    </Data>
                    <Data>
                        <displayName>beam</displayName>
                        <value>ES-13</value>
                    </Data>
                    <Data>
                        <displayName>product_identifier</displayName>
                        <value>1445895</value>
                    </Data>
                    <Data>
                        <displayName>orbit_direction</displayName>
                        <value>DESCENDING</value>
                    </Data>
                    <Data>
                        <displayName>start_datetime</displayName>
                        <value>2020-09-11T22:50:52.021Z</value>
                    </Data>
                    <Data>
                        <displayName>end_datetime</displayName>
                        <value>2020-09-11T22:50:59.687Z</value>
                    </Data>
                    <Data>
                        <displayName>aoi_coverage_percentage</displayName>
                        <value>97.44428703506446</value>
                    </Data>
                    <Data>
                        <displayName>mission_type</displayName>
                        <value>SAR</value>
                    </Data>
                    <Data>
                        <displayName>platform</displayName>
                        <value>CSK2</value>
                    </Data>
                    <Data>
                        <displayName>mission</displayName>
                        <value>COSMO-SkyMed (I Generation)</value>
                    </Data>
                    <Data>
                        <displayName>ownership</displayName>
                        <value>public</value>
                    </Data>
                    <Data>
                        <displayName>data_type</displayName>
                        <value>satellite-imagery</value>
                    </Data>
                    <Data>
                        <displayName>acquisition_status</displayName>
                        <value>ARCHIVED</value>
                    </Data>
                    <Data>
                        <displayName>sensor</displayName>
                        <value>SAR-X</value>
                    </Data>
                    <Data>
                        <displayName>polarization</displayName>
                        <value>HH</value>
                    </Data>
                    <Data>
                        <displayName>resolution_class</displayName>
                        <value>VHR1b</value>
                    </Data>
                    <Data>
                        <displayName>dataset</displayName>
                        <value>COSMO-SkyMed</value>
                    </Data>
                    <Data>
                        <displayName>minimum_incidence_angle</displayName>
                        <value>39.782</value>
                    </Data>
                    <Data>
                        <displayName>maximum_incidence_angle</displayName>
                        <value>40.45</value>
                    </Data>
                </ExtendedData>
                <Polygon>
                    <outerBoundaryIs>
                        <LinearRing>
                            <coordinates>-75.697227,36.13036 -75.676651,36.222256 -75.791214,36.237011 -75.811699,36.147381 -75.697227,36.13036</coordinates>
                        </LinearRing>
                    </outerBoundaryIs>
                </Polygon>
            </Placemark>
            <Placemark>
                <name>2020-09-09T10:42:54.137Z</name>
                <styleUrl>#Default</styleUrl>
                <ExtendedData>
                    <Data>
                        <displayName>orbit_number</displayName>
                        <value>53253</value>
                    </Data>
                    <Data>
                        <displayName>lookside</displayName>
                        <value>RIGHT</value>
                    </Data>
                    <Data>
                        <displayName>acquisition_mode</displayName>
                        <value>Spotlight-2</value>
                    </Data>
                    <Data>
                        <displayName>off_nadir_angle</displayName>
                        <value>30.85</value>
                    </Data>
                    <Data>
                        <displayName>beam</displayName>
                        <value>ES-08</value>
                    </Data>
                    <Data>
                        <displayName>product_identifier</displayName>
                        <value>1443707</value>
                    </Data>
                    <Data>
                        <displayName>orbit_direction</displayName>
                        <value>ASCENDING</value>
                    </Data>
                    <Data>
                        <displayName>start_datetime</displayName>
                        <value>2020-09-09T10:42:54.137Z</value>
                    </Data>
                    <Data>
                        <displayName>end_datetime</displayName>
                        <value>2020-09-09T10:43:01.700Z</value>
                    </Data>
                    <Data>
                        <displayName>aoi_coverage_percentage</displayName>
                        <value>96.03594311027283</value>
                    </Data>
                    <Data>
                        <displayName>mission_type</displayName>
                        <value>SAR</value>
                    </Data>
                    <Data>
                        <displayName>platform</displayName>
                        <value>CSK4</value>
                    </Data>
                    <Data>
                        <displayName>mission</displayName>
                        <value>COSMO-SkyMed (I Generation)</value>
                    </Data>
                    <Data>
                        <displayName>ownership</displayName>
                        <value>public</value>
                    </Data>
                    <Data>
                        <displayName>data_type</displayName>
                        <value>satellite-imagery</value>
                    </Data>
                    <Data>
                        <displayName>acquisition_status</displayName>
                        <value>ARCHIVED</value>
                    </Data>
                    <Data>
                        <displayName>sensor</displayName>
                        <value>SAR-X</value>
                    </Data>
                    <Data>
                        <displayName>polarization</displayName>
                        <value>HH</value>
                    </Data>
                    <Data>
                        <displayName>resolution_class</displayName>
                        <value>VHR1b</value>
                    </Data>
                    <Data>
                        <displayName>dataset</displayName>
                        <value>COSMO-SkyMed</value>
                    </Data>
                    <Data>
                        <displayName>minimum_incidence_angle</displayName>
                        <value>34.235</value>
                    </Data>
                    <Data>
                        <displayName>maximum_incidence_angle</displayName>
                        <value>34.994</value>
                    </Data>
                </ExtendedData>
                <Polygon>
                    <outerBoundaryIs>
                        <LinearRing>
                            <coordinates>-75.682533,36.132217 -75.703819,36.224079 -75.818703,36.208389 -75.797432,36.114269 -75.682533,36.132217</coordinates>
                        </LinearRing>
                    </outerBoundaryIs>
                </Polygon>
            </Placemark>
            <Placemark>
                <name>2020-09-08T22:44:52.839Z</name>
                <styleUrl>#Default</styleUrl>
                <ExtendedData>
                    <Data>
                        <displayName>orbit_number</displayName>
                        <value>71720</value>
                    </Data>
                    <Data>
                        <displayName>lookside</displayName>
                        <value>RIGHT</value>
                    </Data>
                    <Data>
                        <displayName>acquisition_mode</displayName>
                        <value>Spotlight-2</value>
                    </Data>
                    <Data>
                        <displayName>off_nadir_angle</displayName>
                        <value>42.12</value>
                    </Data>
                    <Data>
                        <displayName>beam</displayName>
                        <value>ES-20</value>
                    </Data>
                    <Data>
                        <displayName>product_identifier</displayName>
                        <value>1443251</value>
                    </Data>
                    <Data>
                        <displayName>orbit_direction</displayName>
                        <value>DESCENDING</value>
                    </Data>
                    <Data>
                        <displayName>start_datetime</displayName>
                        <value>2020-09-08T22:44:52.839Z</value>
                    </Data>
                    <Data>
                        <displayName>end_datetime</displayName>
                        <value>2020-09-08T22:45:00.715Z</value>
                    </Data>
                    <Data>
                        <displayName>aoi_coverage_percentage</displayName>
                        <value>79.3767453112513</value>
                    </Data>
                    <Data>
                        <displayName>mission_type</displayName>
                        <value>SAR</value>
                    </Data>
                    <Data>
                        <displayName>platform</displayName>
                        <value>CSK1</value>
                    </Data>
                    <Data>
                        <displayName>mission</displayName>
                        <value>COSMO-SkyMed (I Generation)</value>
                    </Data>
                    <Data>
                        <displayName>ownership</displayName>
                        <value>public</value>
                    </Data>
                    <Data>
                        <displayName>data_type</displayName>
                        <value>satellite-imagery</value>
                    </Data>
                    <Data>
                        <displayName>acquisition_status</displayName>
                        <value>ARCHIVED</value>
                    </Data>
                    <Data>
                        <displayName>sensor</displayName>
                        <value>SAR-X</value>
                    </Data>
                    <Data>
                        <displayName>polarization</displayName>
                        <value>HH</value>
                    </Data>
                    <Data>
                        <displayName>resolution_class</displayName>
                        <value>VHR1b</value>
                    </Data>
                    <Data>
                        <displayName>dataset</displayName>
                        <value>COSMO-SkyMed</value>
                    </Data>
                    <Data>
                        <displayName>minimum_incidence_angle</displayName>
                        <value>47.475</value>
                    </Data>
                    <Data>
                        <displayName>maximum_incidence_angle</displayName>
                        <value>48.022</value>
                    </Data>
                </ExtendedData>
                <Polygon>
                    <outerBoundaryIs>
                        <LinearRing>
                            <coordinates>-75.667038,36.121292 -75.64801,36.214737 -75.763321,36.228218 -75.781792,36.13702 -75.667038,36.121292</coordinates>
                        </LinearRing>
                    </outerBoundaryIs>
                </Polygon>
            </Placemark>
            <Placemark>
                <name>2020-09-08T10:54:54.763Z</name>
                <styleUrl>#Default</styleUrl>
                <ExtendedData>
                    <Data>
                        <displayName>orbit_number</displayName>
                        <value>71713</value>
                    </Data>
                    <Data>
                        <displayName>lookside</displayName>
                        <value>RIGHT</value>
                    </Data>
                    <Data>
                        <displayName>acquisition_mode</displayName>
                        <value>Spotlight-2</value>
                    </Data>
                    <Data>
                        <displayName>off_nadir_angle</displayName>
                        <value>44.75</value>
                    </Data>
                    <Data>
                        <displayName>beam</displayName>
                        <value>ES-23</value>
                    </Data>
                    <Data>
                        <displayName>product_identifier</displayName>
                        <value>1442832</value>
                    </Data>
                    <Data>
                        <displayName>orbit_direction</displayName>
                        <value>ASCENDING</value>
                    </Data>
                    <Data>
                        <displayName>start_datetime</displayName>
                        <value>2020-09-08T10:54:54.763Z</value>
                    </Data>
                    <Data>
                        <displayName>end_datetime</displayName>
                        <value>2020-09-08T10:55:02.729Z</value>
                    </Data>
                    <Data>
                        <displayName>aoi_coverage_percentage</displayName>
                        <value>94.95961346208539</value>
                    </Data>
                    <Data>
                        <displayName>mission_type</displayName>
                        <value>SAR</value>
                    </Data>
                    <Data>
                        <displayName>platform</displayName>
                        <value>CSK1</value>
                    </Data>
                    <Data>
                        <displayName>mission</displayName>
                        <value>COSMO-SkyMed (I Generation)</value>
                    </Data>
                    <Data>
                        <displayName>ownership</displayName>
                        <value>public</value>
                    </Data>
                    <Data>
                        <displayName>data_type</displayName>
                        <value>satellite-imagery</value>
                    </Data>
                    <Data>
                        <displayName>acquisition_status</displayName>
                        <value>ARCHIVED</value>
                    </Data>
                    <Data>
                        <displayName>sensor</displayName>
                        <value>SAR-X</value>
                    </Data>
                    <Data>
                        <displayName>polarization</displayName>
                        <value>HH</value>
                    </Data>
                    <Data>
                        <displayName>resolution_class</displayName>
                        <value>VHR1b</value>
                    </Data>
                    <Data>
                        <displayName>dataset</displayName>
                        <value>COSMO-SkyMed</value>
                    </Data>
                    <Data>
                        <displayName>minimum_incidence_angle</displayName>
                        <value>50.332</value>
                    </Data>
                    <Data>
                        <displayName>maximum_incidence_angle</displayName>
                        <value>50.838</value>
                    </Data>
                </ExtendedData>
                <Polygon>
                    <outerBoundaryIs>
                        <LinearRing>
                            <coordinates>-75.684669,36.129593 -75.702713,36.223743 -75.818108,36.21085 -75.799858,36.114311 -75.684669,36.129593</coordinates>
                        </LinearRing>
                    </outerBoundaryIs>
                </Polygon>
            </Placemark>
            <Placemark>
                <name>2019-10-02T10:43:03.443Z</name>
                <styleUrl>#Default</styleUrl>
                <ExtendedData>
                    <Data>
                        <displayName>orbit_number</displayName>
                        <value>66647</value>
                    </Data>
                    <Data>
                        <displayName>lookside</displayName>
                        <value>RIGHT</value>
                    </Data>
                    <Data>
                        <displayName>acquisition_mode</displayName>
                        <value>Spotlight-2</value>
                    </Data>
                    <Data>
                        <displayName>off_nadir_angle</displayName>
                        <value>30.85</value>
                    </Data>
                    <Data>
                        <displayName>beam</displayName>
                        <value>ES-08</value>
                    </Data>
                    <Data>
                        <displayName>product_identifier</displayName>
                        <value>1157279</value>
                    </Data>
                    <Data>
                        <displayName>orbit_direction</displayName>
                        <value>ASCENDING</value>
                    </Data>
                    <Data>
                        <displayName>start_datetime</displayName>
                        <value>2019-10-02T10:43:03.443Z</value>
                    </Data>
                    <Data>
                        <displayName>end_datetime</displayName>
                        <value>2019-10-02T10:43:11.006Z</value>
                    </Data>
                    <Data>
                        <displayName>aoi_coverage_percentage</displayName>
                        <value>99.40429686188483</value>
                    </Data>
                    <Data>
                        <displayName>mission_type</displayName>
                        <value>SAR</value>
                    </Data>
                    <Data>
                        <displayName>platform</displayName>
                        <value>CSK1</value>
                    </Data>
                    <Data>
                        <displayName>mission</displayName>
                        <value>COSMO-SkyMed (I Generation)</value>
                    </Data>
                    <Data>
                        <displayName>ownership</displayName>
                        <value>public</value>
                    </Data>
                    <Data>
                        <displayName>data_type</displayName>
                        <value>satellite-imagery</value>
                    </Data>
                    <Data>
                        <displayName>acquisition_status</displayName>
                        <value>ARCHIVED</value>
                    </Data>
                    <Data>
                        <displayName>sensor</displayName>
                        <value>SAR-X</value>
                    </Data>
                    <Data>
                        <displayName>polarization</displayName>
                        <value>HH</value>
                    </Data>
                    <Data>
                        <displayName>resolution_class</displayName>
                        <value>VHR1b</value>
                    </Data>
                    <Data>
                        <displayName>dataset</displayName>
                        <value>COSMO-SkyMed</value>
                    </Data>
                    <Data>
                        <displayName>minimum_incidence_angle</displayName>
                        <value>34.322</value>
                    </Data>
                    <Data>
                        <displayName>maximum_incidence_angle</displayName>
                        <value>35.08</value>
                    </Data>
                </ExtendedData>
                <Polygon>
                    <outerBoundaryIs>
                        <LinearRing>
                            <coordinates>-75.67849,36.139244 -75.699722,36.231808 -75.81459,36.216045 -75.792747,36.121326 -75.67849,36.139244</coordinates>
                        </LinearRing>
                    </outerBoundaryIs>
                </Polygon>
            </Placemark>
        </Folder>
    </Document>
</kml>
